APRIZESAT 2             
1 28366U 04025A   26195.97766463  .00000093  00000+0  41676-4 0  9996
2 28366  98.1041   0.3881 0105924 165.5183 194.9081 14.38047594155637
SAUDICOMSAT 1           
1 28369U 04025D   26195.99571245  .00000143  00000+0  44068-4 0  9997
2 28369  98.5777 206.8784 0031009 299.5320  60.2785 14.55493492168178
SAUDICOMSAT 2           
1 28370U 04025E   26196.00371148  .00000092  00000+0  35891-4 0  9999
2 28370  98.6642 209.0364 0055631 174.2631 185.9211 14.49994326164138
APRIZESAT 1             
1 28372U 04025G   26196.00092345  .00000118  00000+0  41115-4 0  9995
2 28372  98.6309 207.4838 0045777  71.2433 289.3720 14.51791998165941
NANOSAT-1               
1 28493U 04049B   26195.95264493  .00000472  00000+0  69328-4 0  9992
2 28493  98.2309 333.2984 0003779 184.6373 175.4803 14.80210552159550
SAUDICOMSAT 7           
1 31119U 07012C   26195.88968906  .00000235  00000+0  51304-4 0  9998
2 31119  98.3797 170.5911 0056964 109.2296 251.5082 14.66136454 26497
SAUDICOMSAT 6           
1 31121U 07012E   26195.86595206  .00000163  00000+0  41322-4 0  9997
2 31121  98.4117 163.9008 0070516 240.1526 119.2654 14.62584351 24234
SAUDICOMSAT 5           
1 31124U 07012H   26196.16506678  .00000303  00000+0  61004-4 0  9994
2 31124  98.3511 171.6136 0048257  38.9185 321.5477 14.68192109 27701
SAUDICOMSAT 3           
1 31125U 07012J   26195.73684612  .00000367  00000+0  68389-4 0  9995
2 31125  98.3164 171.7231 0038309 326.7103  33.1694 14.70749358 28871
SAUDICOMSAT 4           
1 31127U 07012L   26195.89354654  .00000194  00000+0  45311-4 0  9992
2 31127  98.4003 169.0321 0063536 170.6739 189.5659 14.64535235 25343
APRIZESAT 4             
1 35684U 09041D   26196.17348679  .00000322  00000+0  45241-4 0  9995
2 35684  98.1404 272.0508 0042229 229.5978 130.1548 14.83913710915519
APRIZESAT 3             
1 35686U 09041F   26195.98503282  .00000907  00000+0  83267-4 0  9997
2 35686  98.2099 350.5467 0060829 336.6255  23.2201 14.96310664920531
S-NET D                 
1 43186U 18014G   26195.70752162  .00002523  00000+0  13144-3 0  9996
2 43186  97.5336 100.3276 0006263 287.1743  72.8804 15.16915277462932
S-NET B                 
1 43187U 18014H   26196.18128061  .00002292  00000+0  11979-3 0  9992
2 43187  97.5340 100.7857 0006850 278.7794  81.2663 15.16887017463007
S-NET A                 
1 43188U 18014J   26195.97010646  .00002515  00000+0  13097-3 0  9999
2 43188  97.5351 100.7902 0006723 280.6641  79.3835 15.16924758462971
S-NET C                 
1 43189U 18014K   26195.72353909  .00002400  00000+0  12529-3 0  9997
2 43189  97.5370 100.6239 0008125 272.3124  87.7179 15.16876096461487
SALSAT                  
1 46495U 20068K   26196.00653126  .00004157  00000+0  14518-3 0  9999
2 46495  97.8854 200.7735 0009152 193.6321 166.4672 15.30170520319613
OOV-CUBE (TUBSAT-30)    
1 60240U 24128F   26196.13397830  .00000978  00000+0  87108-4 0  9998
2 60240  61.9938 128.1158 0041119 140.0187 220.3944 15.02873623110310
LPNTSAT-001 (IOD-1)     
1 68408U 26065A   26195.61955926  .00001398  00000+0  70560-4 0  9993
2 68408  97.3982  75.5460 0014623 268.7074  91.2485 15.18667253 16429
CHUANG XIN 26 (CX-26)   
1 69972U 26158A   26194.51442212 -.00000212  00000+0 -21871-4 0  9997
2 69972  49.9860 287.5119 0004887 294.2352  65.8050 14.25122238   462
